OBJECT_NAME,OBJECT_ID,EPOCH,MEAN_MOTION,ECCENTRICITY,INCLINATION,RA_OF_ASC_NODE,ARG_OF_PERICENTER,MEAN_ANOMALY,EPHEMERIS_TYPE,CLASSIFICATION_TYPE,NORAD_CAT_ID,ELEMENT_SET_NO,REV_AT_EPOCH,BSTAR,MEAN_MOTION_DOT,MEAN_MOTION_DDOT
IRIDIUM 135,2017-083A,2026-07-17T20:23:35.153088,14.34217842,.00021013,86.3983,309.1985,95.4018,264.7417,0,U,43070,999,44854,-.3023426E-5,.11E-6,0
IRIDIUM 138,2017-083B,2026-07-17T19:19:38.835840,14.34212951,.00017141,86.4007,308.9169,104.5458,255.5928,0,U,43071,999,44852,.42211093E-4,.138E-5,0
IRIDIUM 116,2017-083C,2026-07-17T20:14:26.709216,14.34217719,.00019991,86.3993,309.1859,127.5831,232.5546,0,U,43072,999,44856,.38226704E-4,.127E-5,0
IRIDIUM 130,2017-083D,2026-07-17T19:28:47.334144,14.34218539,.00023187,86.3995,309.4782,100.6130,259.5327,0,U,43073,999,44850,.42280892E-4,.138E-5,0
IRIDIUM 151,2017-083E,2026-07-17T17:11:47.179392,14.34218291,.00022713,86.3988,309.2981,95.1269,265.0186,0,U,43074,999,44851,.29147882E-4,.101E-5,0
IRIDIUM 134,2017-083F,2026-07-17T19:47:03.206688,14.34217808,.00022485,86.3990,309.2614,95.7811,264.3641,0,U,43075,999,44849,.7507979E-5,.41E-6,0
IRIDIUM 137,2017-083G,2026-07-17T20:05:19.276224,14.34217852,.00026729,86.3991,309.3496,93.0247,267.1255,0,U,43076,999,44856,.5132373E-5,.34E-6,0
IRIDIUM 141,2017-083H,2026-07-17T19:56:11.151168,14.34217834,.00021693,86.3985,309.1812,93.9051,266.2393,0,U,43077,999,44856,.16300003E-4,.65E-6,0
IRIDIUM 153,2017-083J,2026-07-17T15:26:23.394048,14.34217857,.00021355,86.3959,277.7384,95.3228,264.8212,0,U,43078,999,44964,.11107915E-4,.51E-6,0
IRIDIUM 131,2017-083K,2026-07-17T19:37:55.176672,14.34217960,.00022233,86.3989,309.3745,93.9299,266.2151,0,U,43079,999,44849,.9991333E-5,.48E-6,0
IRIDIUM 144,2018-030A,2026-07-17T22:17:23.313120,14.34218476,.00024068,86.3955,277.5474,96.2387,263.9083,0,U,43249,999,43454,.24994429E-4,.9E-6,0
IRIDIUM 149,2018-030B,2026-07-17T22:26:31.403616,14.34218060,.00022622,86.3954,277.5113,93.7411,266.4043,0,U,43250,999,43456,.16813383E-4,.67E-6,0
IRIDIUM 157,2018-030C,2026-07-17T22:53:55.526496,14.34218655,.00022778,86.3957,277.5575,94.3814,265.7642,0,U,43251,999,43454,.40957437E-4,.134E-5,0
IRIDIUM 140,2018-030D,2026-07-17T14:58:59.619360,14.34218170,.00022524,86.3957,277.7078,95.6876,264.4577,0,U,43252,999,43455,.40918243E-4,.134E-5,0
IRIDIUM 145,2018-030E,2026-07-17T16:21:11.445408,14.34217565,.00025432,86.3956,277.6562,98.4503,261.6981,0,U,43253,999,43449,.23216222E-4,.85E-6,0
IRIDIUM 146,2018-030F,2026-07-17T22:35:39.461280,14.34217617,.00023852,86.3955,277.5596,96.2997,263.8470,0,U,43254,999,43454,.13365946E-4,.57E-6,0
IRIDIUM 148,2018-030G,2026-07-17T18:29:03.591744,14.34218614,.00023397,86.3958,277.6745,93.2014,266.9450,0,U,43255,999,43455,.41022757E-4,.135E-5,0
IRIDIUM 142,2018-030H,2026-07-17T16:02:55.469184,14.34217866,.00024346,86.3954,277.6049,95.4152,264.7322,0,U,43256,999,43450,.9488763E-5,.46E-6,0
IRIDIUM 150,2018-030J,2026-07-17T18:38:11.362560,14.34217524,.00022919,86.3958,277.6772,96.2538,263.8919,0,U,43257,999,43454,.41408821E-4,.136E-5,0
IRIDIUM 143,2018-030K,2026-07-17T14:49:51.506400,14.34217972,.00023672,86.3961,277.8373,97.1566,262.9899,0,U,43258,999,43445,.25562062E-4,.91E-6,0
IRIDIUM 161,2018-047C,2026-07-17T14:31:32.066400,14.43276359,.00022209,86.4459,75.7499,80.6904,279.4548,0,U,43478,999,42952,.37651672E-4,.147E-5,0
IRIDIUM 152,2018-047D,2026-07-17T04:07:46.267392,14.34218440,.0002137,86.3933,75.7924,84.1747,275.9693,0,U,43479,999,42678,.13724E-4,.58E-6,0
IRIDIUM 147,2018-047E,2026-07-17T16:00:10.280160,14.34217498,.00022863,86.3935,75.5912,87.9760,272.1698,0,U,43480,999,42685,.15323567E-4,.63E-6,0
IRIDIUM 110,2018-047F,2026-07-17T22:51:09.966816,14.34219252,.00020599,86.3937,75.5645,77.8013,282.3414,0,U,43481,999,42688,.41022153E-4,.135E-5,0
IRIDIUM 162,2018-047G,2026-07-17T22:41:38.734080,14.43279287,.0002195,86.4457,75.4980,86.8786,273.2666,0,U,43482,999,42956,.44269353E-4,.169E-5,0
IRIDIUM 160,2018-061A,2026-07-17T13:10:50.435040,14.34217595,.0002225,86.3939,44.0968,86.7335,273.4115,0,U,43569,999,41772,.34125E-4,.115E-5,0
IRIDIUM 166,2018-061B,2026-07-17T12:06:54.492768,14.34217721,.0002289,86.3937,44.0655,89.8334,270.3124,0,U,43570,999,41774,.30949E-5,.28E-6,0
IRIDIUM 158,2018-061C,2026-07-17T19:43:34.432320,14.34217857,.00021096,86.3938,43.9422,88.1213,272.0224,0,U,43571,999,41775,.8402115E-5,.43E-6,0
IRIDIUM 165,2018-061D,2026-07-17T13:38:14.565696,14.34217468,.00022805,86.3940,44.0958,89.9584,270.1873,0,U,43572,999,41774,.9524598E-5,.46E-6,0
IRIDIUM 155,2018-061E,2026-07-17T19:25:18.477696,14.34217566,.00021477,86.3937,43.8625,90.4246,269.7196,0,U,43573,999,41774,.4911552E-5,.34E-6,0
